[{"OBJECT_NAME":"STARLINK-36530","OBJECT_ID":"2026-012X","EPOCH":"2026-03-09T23:11:53.642112","MEAN_MOTION":15.2758864,"ECCENTRICITY":0.0001553,"INCLINATION":43.0006,"RA_OF_ASC_NODE":312.877,"ARG_OF_PERICENTER":280.4095,"MEAN_ANOMALY":79.6581,"EPHEMERIS_TYPE":0,"CLASSIFICATION_TYPE":"U","NORAD_CAT_ID":67514,"ELEMENT_SET_NO":999,"REV_AT_EPOCH":780,"BSTAR":0.00092126644,"MEAN_MOTION_DOT":0.00025183,"MEAN_MOTION_DDOT":0},{"OBJECT_NAME":"COSMOS 1758","OBJECT_ID":"1986-046A","EPOCH":"2026-03-09T22:23:33.220896","MEAN_MOTION":15.25706639,"ECCENTRICITY":0.00131526,"INCLINATION":82.4607,"RA_OF_ASC_NODE":143.3203,"ARG_OF_PERICENTER":337.3781,"MEAN_ANOMALY":22.6875,"EPHEMERIS_TYPE":0,"CLASSIFICATION_TYPE":"U","NORAD_CAT_ID":16791,"ELEMENT_SET_NO":999,"REV_AT_EPOCH":16610,"BSTAR":0.00027304427,"MEAN_MOTION_DOT":7.006e-5,"MEAN_MOTION_DDOT":0}]
